STARLINK-5482
1 56358U 23058AT  26134.25971630 -.00008211  00000+0 -56486-3 0  9999
2 56358  97.4955 134.6119 0002693  93.5560 266.5975 15.05695333167993
STARLINK-5533
1 56355U 23058AQ  26134.33334491  .00099051  00000+0  60311-2 0  9994
2 56355  97.5227 134.6617 0002982 102.6024 223.3346 15.09937851  5794
STARLINK-5535
1 56356U 23058AR  26134.00355350  .00002212  00000+0  15743-3 0  9999
2 56356  97.4959 135.4067 0001964  93.4644 266.6808 15.05638877168029
STARLINK-5538
1 56357U 23058AS  26133.97032659 -.00000196  00000+0 -95062-5 0  9994
2 56357  97.4964 135.4519 0001992  92.3303 267.8152 15.05652635168022
STARLINK-5540
1 56340U 23058Z   26134.27491932  .00000685  00000+0  51589-4 0  9999
2 56340  97.4961 135.6577 0001934  93.8755 266.2693 15.05650620168069
STARLINK-5543
1 56341U 23058AA  26134.28463709 -.00003332  00000+0 -22674-3 0  9998
2 56341  97.4927 134.5720 0002465  73.4879 286.6619 15.05679421167985
STARLINK-5549
1 56360U 23058AV  26134.25830748 -.00000803  00000+0 -51544-4 0  9996
2 56360  97.4961 135.6813 0001872  86.7154 273.4287 15.05652108168061
STARLINK-5550
1 56361U 23058AW  26134.00496802 -.00007857  00000+0 -54051-3 0  9990
2 56361  97.4960 134.3419 0002455  86.4155 273.7352 15.05685053167953
STARLINK-5551
1 56359U 23058AU  26133.98005581 -.00001155  00000+0 -75946-4 0  9995
2 56359  97.4992 134.2226 0002323  91.4112 268.7382 15.05646373167941
STARLINK-5552
1 56339U 23058Y   26134.25419142  .00000118  00000+0  12268-4 0  9990
2 56339  97.4964 134.6152 0001861  95.7090 264.4350 15.05651743167998
STARLINK-5554
1 56338U 23058X   26134.26526313 -.00001186  00000+0 -78098-4 0  9990
2 56338  97.4962 134.6016 0002757  96.2343 263.9198 15.05656987167995
STARLINK-5561
1 56337U 23058W   26133.96065686  .00000324  00000+0  26534-4 0  9995
2 56337  97.4975 134.2401 0001450  99.0921 261.0470 15.05653415167944
STARLINK-5562
1 56336U 23058V   26134.27633371 -.00000651  00000+0 -41036-4 0  9990
2 56336  97.4970 134.5872 0001727  75.3524 284.7894 15.05656270167995
STARLINK-5829
1 56347U 23058AG  26133.98970702 -.00000152  00000+0 -64574-5 0  9990
2 56347  97.4978 135.4231 0001768  83.6176 276.5253 15.05649875168020
STARLINK-5837
1 56346U 23058AF  26133.99112642  .00000241  00000+0  20802-4 0  9993
2 56346  97.4994 134.3515 0002288  86.5546 273.5942 15.05650299167956
STARLINK-5874
1 56353U 23058AN  26133.96619566 -.00003415  00000+0 -23258-3 0  9990
2 56353  97.4964 134.2400 0001851  71.6948 288.4480 15.05668291167941
STARLINK-5877
1 56354U 23058AP  26133.95923497 -.00000588  00000+0 -36591-4 0  9994
2 56354  97.4987 135.3155 0002760 109.8012 250.3513 15.05663397168018
STARLINK-5885
1 56352U 23058AM  26133.96342645 -.00000890  00000+0 -57547-4 0  9993
2 56352  97.4976 134.2391 0002847 108.9022 251.2514 15.05660326167942
STARLINK-5886
1 56350U 23058AK  26133.98140194 -.00000948  00000+0 -61572-4 0  9995
2 56350  97.4956 135.4361 0002349  84.3915 275.7580 15.05650242168023
STARLINK-5887
1 56349U 23058AJ  26134.26249673 -.00000221  00000+0 -11223-4 0  9999
2 56349  97.4966 134.6078 0002229  89.3425 270.8057 15.05652034167997
STARLINK-5888
1 56348U 23058AH  26134.24863823 -.00004698  00000+0 -32155-3 0  9993
2 56348  97.4963 134.4693 0002312  84.2024 275.9466 15.05669682167982
STARLINK-5891
1 56351U 23058AL  26134.27214988 -.00003618  00000+0 -24664-3 0  9999
2 56351  97.4941 135.6627 0002877  82.8259 277.3295 15.05667522168069
STARLINK-5955
1 56342U 23058AB  26133.98416982 -.00001460  00000+0 -97075-4 0  9994
2 56342  97.4955 135.4316 0002320  85.4948 274.6545 15.05654197168022
STARLINK-5972
1 56362U 23058AX  26134.26384681  .00000819  00000+0  60854-4 0  9998
2 56362  97.4955 135.6728 0001994  90.3729 269.7727 15.05646719168063
STARLINK-5974
1 56344U 23058AD  26134.23893192 -.00000462  00000+0 -27918-4 0  9997
2 56344  97.4947 135.7063 0002195  82.6337 277.5139 15.05648977168062
STARLINK-5976
1 56343U 23058AC  26134.27768513  .00000832  00000+0  61796-4 0  9999
2 56343  97.5017 135.6581 0003008 100.0916 260.0650 15.05652794168063
STARLINK-5979
1 56345U 23058AE  26134.30126005 -.00000893  00000+0 -57749-4 0  9991
2 56345  97.4962 134.5524 0002181  88.6284 271.5193 15.05654150167996
