OBJECT_NAME,OBJECT_ID,EPOCH,MEAN_MOTION,ECCENTRICITY,INCLINATION,RA_OF_ASC_NODE,ARG_OF_PERICENTER,MEAN_ANOMALY,EPHEMERIS_TYPE,CLASSIFICATION_TYPE,NORAD_CAT_ID,ELEMENT_SET_NO,REV_AT_EPOCH,BSTAR,MEAN_MOTION_DOT,MEAN_MOTION_DDOT
STARLINK-5562,2023-058V,2026-05-14T06:37:55.232544,15.05656270,.00017274,97.4970,134.5872,75.3524,284.7894,0,U,56336,999,16799,-.41035522E-4,-.651E-5,0
STARLINK-5561,2023-058W,2026-05-13T23:03:20.752704,15.05653415,.000145,97.4975,134.2401,99.0921,261.0470,0,U,56337,999,16794,.26534E-4,.324E-5,0
STARLINK-5554,2023-058X,2026-05-14T06:21:58.734432,15.05656987,.0002757,97.4962,134.6016,96.2343,263.9198,0,U,56338,999,16799,-.78098182E-4,-.1186E-4,0
STARLINK-5552,2023-058Y,2026-05-14T06:06:02.138688,15.05651743,.00018619,97.4964,134.6152,95.7090,264.4350,0,U,56339,999,16799,.1226762E-4,.118E-5,0
STARLINK-5540,2023-058Z,2026-05-14T06:35:53.029248,15.05650620,.00019341,97.4961,135.6577,93.8755,266.2693,0,U,56340,999,16806,.51589206E-4,.685E-5,0
STARLINK-5543,2023-058AA,2026-05-14T06:49:52.644576,15.05679421,.00024657,97.4927,134.5720,73.4879,286.6619,0,U,56341,999,16798,-.22674217E-3,-.3332E-4,0
STARLINK-5955,2023-058AB,2026-05-13T23:37:12.272448,15.05654197,.000232,97.4955,135.4316,85.4948,274.6545,0,U,56342,999,16802,-.97075232E-4,-.146E-4,0
STARLINK-5976,2023-058AC,2026-05-14T06:39:51.995232,15.05652794,.00030087,97.5017,135.6581,100.0916,260.0650,0,U,56343,999,16806,.61795814E-4,.832E-5,0
STARLINK-5974,2023-058AD,2026-05-14T05:44:03.717888,15.05648977,.00021958,97.4947,135.7063,82.6337,277.5139,0,U,56344,999,16806,-.27918482E-4,-.462E-5,0
STARLINK-5979,2023-058AE,2026-05-14T07:13:48.868320,15.05654150,.0002181,97.4962,134.5524,88.6284,271.5193,0,U,56345,999,16799,-.57749239E-4,-.893E-5,0
STARLINK-5837,2023-058AF,2026-05-13T23:47:13.322688,15.05650299,.00022886,97.4994,134.3515,86.5546,273.5942,0,U,56346,999,16795,.20802115E-4,.241E-5,0
STARLINK-5829,2023-058AG,2026-05-13T23:45:10.686528,15.05649875,.00017684,97.4978,135.4231,83.6176,276.5253,0,U,56347,999,16802,-.6457367E-5,-.152E-5,0
STARLINK-5888,2023-058AH,2026-05-14T05:58:02.343072,15.05669682,.00023124,97.4963,134.4693,84.2024,275.9466,0,U,56348,999,16798,-.32154541E-3,-.4698E-4,0
STARLINK-5887,2023-058AJ,2026-05-14T06:17:59.717472,15.05652034,.00022294,97.4966,134.6078,89.3425,270.8057,0,U,56349,999,16799,-.11223372E-4,-.221E-5,0
STARLINK-5886,2023-058AK,2026-05-13T23:33:13.127616,15.05650242,.00023495,97.4956,135.4361,84.3915,275.7580,0,U,56350,999,16802,-.61571982E-4,-.948E-5,0
STARLINK-5891,2023-058AL,2026-05-14T06:31:53.749632,15.05667522,.00028772,97.4941,135.6627,82.8259,277.3295,0,U,56351,999,16806,-.24663957E-3,-.3618E-4,0
STARLINK-5885,2023-058AM,2026-05-13T23:07:20.045280,15.05660326,.0002847,97.4976,134.2391,108.9022,251.2514,0,U,56352,999,16794,-.57547E-4,-.89E-5,0
STARLINK-5874,2023-058AN,2026-05-13T23:11:19.305024,15.05668291,.0001851,97.4964,134.2400,71.6948,288.4480,0,U,56353,999,16794,-.23258E-3,-.3415E-4,0
STARLINK-5877,2023-058AP,2026-05-13T23:01:17.901408,15.05663397,.000276,97.4987,135.3155,109.8012,250.3513,0,U,56354,999,16801,-.36591E-4,-.588E-5,0
STARLINK-5533,2023-058AQ,2026-05-14T08:00:01.000224,15.09937851,.0002982,97.5227,134.6617,102.6024,223.3346,0,U,56355,999,579,.60311423E-2,.99051E-3,0
STARLINK-5535,2023-058AR,2026-05-14T00:05:07.022400,15.05638877,.00019642,97.4959,135.4067,93.4644,266.6808,0,U,56356,999,16802,.15742607E-3,.2212E-4,0
STARLINK-5538,2023-058AS,2026-05-13T23:17:16.217376,15.05652635,.0001992,97.4964,135.4519,92.3303,267.8152,0,U,56357,999,16802,-.95062E-5,-.196E-5,0
STARLINK-5482,2023-058AT,2026-05-14T06:13:59.488320,15.05695333,.00026932,97.4955,134.6119,93.5560,266.5975,0,U,56358,999,16799,-.56486014E-3,-.8211E-4,0
STARLINK-5551,2023-058AU,2026-05-13T23:31:16.821984,15.05646373,.00023231,97.4992,134.2226,91.4112,268.7382,0,U,56359,999,16794,-.75946334E-4,-.1155E-4,0
STARLINK-5549,2023-058AV,2026-05-14T06:11:57.766272,15.05652108,.00018729,97.4961,135.6813,86.7154,273.4287,0,U,56360,999,16806,-.51543577E-4,-.803E-5,0
STARLINK-5550,2023-058AW,2026-05-14T00:07:09.236928,15.05685053,.00024552,97.4960,134.3419,86.4155,273.7352,0,U,56361,999,16795,-.54051271E-3,-.7857E-4,0
STARLINK-5972,2023-058AX,2026-05-14T06:19:56.364384,15.05646719,.00019941,97.4955,135.6728,90.3729,269.7727,0,U,56362,999,16806,.60853765E-4,.819E-5,0
